{
  "type": "FeatureCollection",
  "name": "beijing-uom-prohibited-reference",
  "crs": {"type": "name", "properties": {"name": "EPSG:4326"}},
  "features": [
    {
      "type": "Feature",
      "id": "beijing-110000-uom-prohibited-reference",
      "properties": {
        "name": "北京全市禁飞（UOM 规则参考）",
        "zoneClass": "prohibited",
        "sourceClass": "uom-prohibited-rule",
        "distCode": "110000",
        "ruleBasis": "UOM 北京禁飞规则（运营方确认）",
        "authoritative": false,
        "boundaryPrecision": "administrative-reference",
        "boundarySource": "https://github.com/panyanbin/gcoord/blob/master/map/%E5%8C%97%E4%BA%AC%E5%B8%82_110000.json",
        "officialBoundaryReference": "https://ghzrzyw.beijing.gov.cn/zhengwuxinxi/tzgg/sj/202409/t20240920_3902253.html",
        "notice": "该面用于风险提示，不代表已取得 UOM 正式矢量授权"
      },
      "geometry": {
        "type": "Polygon",
        "coordinates": [[
          [117.223901, 40.375538], [117.337622, 40.263266], [117.381225, 40.172455],
          [117.274362, 40.105804], [117.172227, 40.074157], [117.000683, 40.029915],
          [116.823158, 40.039834], [116.804148, 39.877933], [116.928180, 39.814153],
          [116.887589, 39.725515], [116.825040, 39.613884], [116.724953, 39.598006],
          [116.591993, 39.621299], [116.508050, 39.560256], [116.402820, 39.514390],
          [116.391903, 39.452893], [116.246521, 39.539788], [116.116634, 39.574002],
          [115.954982, 39.566092], [115.882960, 39.548110], [115.770828, 39.510971],
          [115.657273, 39.600081], [115.512121, 39.605129], [115.470568, 39.742391],
          [115.546396, 39.825992], [115.426150, 39.950350], [115.563419, 40.097922],
          [115.704765, 40.129655], [115.854205, 40.179939], [115.955212, 40.276984],
          [115.861922, 40.364811], [115.743788, 40.518464], [115.928297, 40.612753],
          [116.122071, 40.629989], [116.229979, 40.762417], [116.379837, 40.772325],
          [116.374881, 40.871531], [116.450730, 40.901345], [116.547826, 40.988003],
          [116.682878, 41.041789], [116.726145, 40.901185], [116.876735, 40.818456],
          [117.018291, 40.696011], [117.217335, 40.691960], [117.453958, 40.677618],
          [117.419954, 40.617517], [117.268507, 40.559842], [117.252154, 40.450459],
          [117.223901, 40.375538]
        ]]
      }
    }
  ]
}
